IRIDIUM 112             
1 41925U 17003J   24038.88771061  .00000396  00000+0  13428-3 0  9995
2 41925  86.3925  87.8622 0002338  89.4486 270.6977 14.34218699369962
IRIDIUM 111             
1 41926U 17003K   24038.87502565  .00000215  00000+0  69622-4 0  9994
2 41926  86.3927  87.9190 0002006  87.2014 272.9412 14.34217770369947
IRIDIUM 113             
1 42803U 17039A   24039.27359872  .00000207  00000+0  66874-4 0  9991
2 42803  86.4005 321.5155 0002117  76.0292 284.1139 14.34218114347934
IRIDIUM 123             
1 42804U 17039B   24038.89646663  .00000091  00000+0  25604-4 0  9993
2 42804  86.4007 353.1569 0002175  84.0426 276.1017 14.34218376346642
IRIDIUM 120             
1 42805U 17039C   24039.33702480  .00000346  00000+0  11645-3 0  9996
2 42805  86.3994 321.3829 0002081  84.8727 275.2707 14.34220204347933
IRIDIUM 115             
1 42806U 17039D   24038.86155690  .00000733  00000+0  21184-3 0  9998
2 42806  86.4532 321.5871 0002126  78.9913 281.1527 14.43276238350177
IRIDIUM 118             
1 42807U 17039E   24038.92818048  .00000186  00000+0  59320-4 0  9995
2 42807  86.4009 353.1455 0002196  84.6403 275.5044 14.34218182346654
IRIDIUM 117             
1 42808U 17039F   24038.87743816  .00000015  00000+0 -16265-5 0  9994
2 42808  86.4005 353.1323 0002052  81.4952 278.6476 14.34216884346661
